QIANFAN-81              
1 63167U 25046J   25365.15289876  .00000255  00000+0  37521-3 0  9999
2 63167  88.9779 317.9672 0016735  68.5914 291.7021 13.51009289 49972
QIANFAN-82              
1 63168U 25046K   25365.11325397  .00000258  00000+0  37999-3 0  9997
2 63168  88.9779 318.0153 0014895  75.6105 284.6698 13.50982236 49955
QIANFAN-83              
1 63169U 25046L   25365.13905584  .00000279  00000+0  34614-3 0  9996
2 63169  88.9780 317.7529 0016143  61.9336 298.3451 13.61981911 50102
QIANFAN-84              
1 63170U 25046M   25365.14091455  .00000253  00000+0  37289-3 0  9995
2 63170  88.9779 318.1450 0017860  72.4086 287.9014 13.50992426 49889
QIANFAN-85              
1 63171U 25046N   25365.13780557  .00000271  00000+0  40007-3 0  9995
2 63171  88.9779 318.0170 0015246  74.4772 285.8061 13.50983263 49954
QIANFAN-86              
1 63172U 25046P   25365.14613782  .00000253  00000+0  37327-3 0  9993
2 63172  88.9781 317.8787 0013123  78.1402 282.1220 13.50982855 50036
QIANFAN-87              
1 63173U 25046Q   25365.11749764  .00000273  00000+0  40322-3 0  9992
2 63173  88.9777 317.9926 0013774  74.2217 286.0451 13.50980351 49969
QIANFAN-88              
1 63174U 25046R   25365.13374069  .00000273  00000+0  40333-3 0  9999
2 63174  88.9780 317.9460 0014170  81.0218 279.2537 13.50987006 49991
